OBJECT_NAME,OBJECT_ID,EPOCH,MEAN_MOTION,ECCENTRICITY,INCLINATION,RA_OF_ASC_NODE,ARG_OF_PERICENTER,MEAN_ANOMALY,EPHEMERIS_TYPE,CLASSIFICATION_TYPE,NORAD_CAT_ID,ELEMENT_SET_NO,REV_AT_EPOCH,BSTAR,MEAN_MOTION_DOT,MEAN_MOTION_DDOT
FLOCK 4BE-14,2024-149BB,2026-07-02T11:45:40.872096,15.41487613,.0004064,97.3695,267.3934,219.5234,140.5717,0,U,60517,999,10468,.46999E-3,.19639E-3,0
FLOCK 4BE-1,2024-149BC,2026-07-02T03:58:38.061984,15.43104379,.00038172,97.3782,268.3976,220.0575,140.0391,0,U,60518,999,10468,.48720463E-3,.21496E-3,0
FLOCK 4BE-28,2024-149BD,2026-07-02T13:06:08.510112,15.45447882,.0003886,97.3750,269.5550,212.3345,147.7666,0,U,60519,999,10481,.4079E-3,.19463E-3,0
IPERDRONE.0,2024-149BE,2026-07-02T19:35:27.551040,15.69081301,.0004274,97.3781,277.8253,194.7168,165.3970,0,U,60520,999,10536,.76324E-3,.88885E-3,0
TRANSPORTER-11 OBJECT BF,2024-149BF,2026-07-02T17:56:34.075968,15.94434281,.0007051,97.3730,280.9922,231.7350,128.3291,0,U,60521,999,10555,.11222E-2,.419468E-2,.71698E-4
CONNECTA IOT-2,2024-149BG,2026-07-02T11:28:41.168064,15.24103599,.000482,97.3838,261.3928,268.9684,91.1002,0,U,60522,999,10422,.22902E-3,.5495E-4,0
CONNECTA IOT-4,2024-149BJ,2026-07-02T04:38:53.233152,15.42713951,.00049101,97.3800,267.7462,220.1205,139.9680,0,U,60524,999,10464,.54016662E-3,.23542E-3,0
ORESAT0.5,2024-149BK,2026-07-02T04:56:04.126848,15.45654190,.00050705,97.3730,269.4410,209.2676,150.8290,0,U,60525,999,10479,.47559357E-3,.22883E-3,0
DEIMOS,2024-149BL,2026-07-02T12:07:45.138720,15.44776747,.000496,97.3785,269.8778,214.2987,145.7942,0,U,60526,999,10481,.46241E-3,.21587E-3,0
CUAVA-2,2024-149BM,2026-07-02T15:36:24.708672,15.36473501,.0005759,97.3725,265.1985,226.2602,133.8166,0,U,60527,999,10454,.36168E-3,.12803E-3,0
ERNST,2024-149BN,2026-07-02T12:15:03.149568,15.39610069,.0005045,97.3808,267.3482,226.3529,133.7299,0,U,60528,999,10463,.40559E-3,.15912E-3,0
TORO,2024-149BQ,2026-07-02T03:37:26.494176,14.96476353,.00014593,97.6779,257.5395,98.9397,261.1990,0,U,60530,999,10219,.25094529E-3,.2792E-4,0
HYPSO-2,2024-149BR,2026-07-02T11:44:00.787200,14.98867281,.0001569,97.6816,259.5254,116.9924,243.1459,0,U,60531,999,10234,.32777E-3,.39E-4,0
LEMU NGE,2024-149BS,2026-07-02T15:30:52.465248,14.95019459,.0001242,97.6840,258.2939,51.3385,308.7946,0,U,60532,999,10226,.19651E-3,.2093E-4,0
LEMUR-2-STELLA,2024-149BT,2026-07-02T04:06:22.244256,15.12128587,.00011481,97.6740,265.6937,101.5384,258.5975,0,U,60533,999,10276,.78521518E-3,.13479E-3,0
SATELIOT_2,2024-149BU,2026-07-02T11:21:15.403680,14.96415016,.0001626,97.6817,258.1505,89.1598,270.9809,0,U,60534,999,10225,.22752E-3,.2522E-4,0
NIGHTJAR,2024-149BV,2026-07-02T19:28:54.901056,14.99101679,.0001481,97.6826,260.2991,116.7663,243.3712,0,U,60535,999,14521,.3282E-3,.3929E-4,0
LEMUR-2-MARHISYAM,2024-149BW,2026-07-02T11:42:38.225088,15.11560020,.0003268,97.6884,266.4769,90.7390,269.4214,0,U,60536,999,10279,.6723E-3,.11348E-3,0
SATELIOT_4,2024-149BX,2026-07-02T16:21:11.998368,14.96720959,.0001871,97.6734,257.8716,31.6215,328.5119,0,U,60537,999,10229,.22395E-3,.2501E-4,0
PICO-02A021,2024-149BY,2026-07-02T16:12:09.421056,15.03403483,.0003612,97.6761,262.3754,348.8035,11.3109,0,U,60538,999,10206,.42879E-3,.5772E-4,0
ICEYE-X43,2024-149BZ,2026-07-02T04:11:41.090496,14.99728540,.00076556,97.6823,259.9372,39.0267,321.1508,0,U,60539,999,10236,.35086265E-3,.4276E-4,0
HAWK-10A,2024-149CA,2026-07-02T16:21:41.177376,14.96559628,.0003938,97.6888,259.3268,42.2946,317.8579,0,U,60540,999,10230,.18541E-3,.2052E-4,0
UMBRA-09,2024-149CB,2026-07-02T19:39:31.483296,15.18519325,.0001422,97.6973,271.2965,228.8226,131.2885,0,U,60541,999,10309,.87575E-3,.18034E-3,0
QPS-SAR-8 (AMATERU-IV),2024-149CC,2026-07-02T15:02:33.868032,15.04293167,.0004247,97.6668,262.6477,72.6402,287.5288,0,U,60542,999,10259,.47232E-3,.6519E-4,0
ARCTIC WEATHER SATELLITE,2024-149CD,2026-07-02T11:12:51.017760,14.89809395,.0003551,97.6797,253.4958,74.9350,285.2260,0,U,60543,999,10157,.13084E-3,.1202E-4,0
CAPELLA-15 (ACADIA-5),2024-149CE,2026-07-02T19:27:09.484416,14.92416006,.0003822,97.6765,256.3232,31.0112,329.1333,0,U,60544,999,10218,.55795E-3,.5662E-4,0
HAWK-10B,2024-149CF,2026-07-02T16:21:29.116800,14.96559258,.0006211,97.6810,258.6661,53.3259,306.8533,0,U,60545,999,10230,.18934E-3,.2097E-4,0
ICEYE-X39,2024-149CG,2026-07-02T05:17:20.512320,14.99990046,.0006718,97.6767,260.0399,80.4764,279.7218,0,U,60546,999,10237,.35634E-3,.4373E-4,0
UMBRA-10,2024-149CH,2026-07-02T19:38:52.746720,15.18521663,.0000766,97.6980,271.3251,176.3276,183.7963,0,U,60547,999,10310,.91503E-3,.18849E-3,0
ICEYE-X33,2024-149CJ,2026-07-02T04:04:08.472000,15.00850601,.0001893,97.7312,262.2259,44.8492,315.2885,0,U,60548,999,10245,.42739E-3,.5375E-4,0
